TDRS 13                 
1 42915U 17047A   26175.16818661 -.00000095  00000+0  00000+0 0  9991
2 42915   3.4533   2.9237 0014919 106.7540 211.7611  1.00272475 32418
QZS-3 (MICHIBIKI-3)     
1 42917U 17048A   26175.19566008 -.00000340  00000+0  00000+0 0  9995
2 42917   0.0628 153.3950 0002195 295.2939  21.1395  1.00273245 32339
AMAZONAS 5              
1 42934U 17053A   26175.01579412 -.00000275  00000+0  00000+0 0  9991
2 42934   0.0291 328.4439 0001951  87.3334 161.0747  1.00268513 32112
ASIASAT 9               
1 42942U 17057A   26175.33724583  .00000000  00000+0  00000+0 0  9995
2 42942   0.0430  51.7543 0002459  34.3679  69.9370  1.00264238 31933
INTELSAT 37E (IS-37E)   
1 42950U 17059A   26175.20878243  .00000000  00000+0  00000+0 0  9995
2 42950   0.0243   8.1537 0003048 110.0084 211.3584  1.00268788 32137
BSAT-4A                 
1 42951U 17059B   26175.03864247 -.00000343  00000+0  00000+0 0  9997
2 42951   0.0344   8.2808 0004190  62.9372 324.7187  1.00272441 31864
QZS-4 (MICHIBIKI-4)     
1 42965U 17062A   26169.35012920 -.00000360  00000+0  00000+0 0  9996
2 42965  40.1070 343.4662 0745018 271.8091 274.2172  1.00250086 31811
SES-11 (ECHOSTAR 105)   
1 42967U 17063A   26175.22089929 -.00000082  00000+0  00000+0 0  9996
2 42967   0.0369 297.9973 0002882 152.7909 156.1632  1.00272829 31792
KOREASAT 5A             
1 42984U 17067A   26175.19558366 -.00000351  00000+0  00000+0 0  9990
2 42984   0.0131 355.2471 0000794  87.5012  13.1727  1.00272205 31604
ALCOMSAT 1              
1 43039U 17078A   26175.16549993 -.00000179  00000+0  00000+0 0  9995
2 43039   0.0155 312.0982 0002523 134.1018 220.8960  1.00272180 31368
SBIRS GEO-3 (USA 282)   
1 43162U 18009A   26175.21014164  .00000134  00000+0  00000+0 0  9990
2 43162   2.1892  12.4586 0002197  72.2760 103.8757  1.00272334 30915
AL YAH 3                
1 43174U 18012A   26175.16645328 -.00000149  00000+0  00000+0 0  9990
2 43174   1.5704  83.0366 0004065   7.1892 221.9022  1.00272252 30918
SES-14                  
1 43175U 18012B   26175.16099325 -.00000271  00000+0  00000+0 0  9997
2 43175   0.0186  32.4949 0001101  59.2097 191.0635  1.00270948  7095
GOES 17                 
1 43226U 18022A   26175.29676794 -.00000175  00000+0  00000+0 0  9993
2 43226   0.9553  85.5877 0000579  16.6900 187.4905  1.00273081 30496
HISPASAT 30W-6          
1 43228U 18023A   26174.39406146 -.00000211  00000+0  00000+0 0  9999
2 43228   0.0466  46.0974 0005944  28.6275 308.6828  1.00272502 30466
SUPERBIRD-B3            
1 43271U 18033A   26175.20251494 -.00000085  00000+0  00000+0 0  9992
2 43271   0.0148 308.9634 0001433 156.5480  41.7464  1.00271244 30139
HYLAS 4                 
1 43272U 18033B   26175.02116747 -.00000227  00000+0  00000+0 0  9992
2 43272   0.0190  17.2224 0001127  85.4220 143.6246  1.00270871 30139
IRNSS-1I                
1 43286U 18035A   26173.94027396  .00000069  00000+0  00000+0 0  9992
2 43286  28.7686  74.1054 0017612 182.2780  48.0829  1.00275175 30134
USA 283                 
1 43339U 18036A   26170.53794801  .00000000  00000+0  00000+0 0  9991
2 43339   0.0091  53.6723 0000086  77.7836 104.0737  1.00268506 25313
COSMOS 2526             
1 43432U 18037A   26175.03308476 -.00000338  00000+0  00000+0 0  9990
2 43432   0.0255  46.7980 0000672 188.6411 176.7104  1.00270461 30020
APSTAR-6C               
1 43450U 18041A   26174.01850051 -.00000314  00000+0  00000+0 0  9997
2 43450   0.0245 335.6508 0000839  26.5476  49.6657  1.00273186 29869
BANGABANDHUSAT-1        
1 43463U 18044A   26175.19558366  .00000000  00000+0  00000+0 0  9999
2 43463   0.0180  23.0052 0002182  71.8808   6.9774  1.00268791 29781
SES-12                  
1 43488U 18049A   26174.74211521 -.00000263  00000+0  00000+0 0  9992
2 43488   0.0140  18.0176 0000554 248.6570   7.3782  1.00269989 29487
FENGYUN 2H              
1 43491U 18050A   26175.11484620 -.00000124  00000+0  00000+0 0  9998
2 43491   3.0500  79.0011 0001675 128.9794 184.9906  1.00269578 29509
BEIDOU-2 IGSO-7         
1 43539U 18057A   26174.91209138 -.00000015  00000+0  00000+0 0  9993
2 43539  55.1966 162.9981 0104969 238.0220 308.7822  1.00249137 29198
TELSTAR 19V             
1 43562U 18059A   26175.08663437 -.00000273  00000+0  00000+0 0  9992
2 43562   0.0158 178.5187 0002860 295.4617 126.4534  1.00271347 29217
TELKOM 4 (MERAH PUTIH)  
1 43587U 18064A   26175.04911253 -.00000337  00000+0  00000+0 0  9994
2 43587   0.0181  36.7879 0001588  80.9843 280.1110  1.00271050 28945
TELSTAR 18V             
1 43611U 18069A   26175.17475344 -.00000287  00000+0  00000+0 0  9991
2 43611   0.0153 299.4938 0002046 150.9191  22.8217  1.00271042 28715
AZERSPACE 2 (IS-38)     
1 43632U 18074A   26175.22891794  .00000000  00000+0  00000+0 0  9999
2 43632   0.0251  13.9170 0001628  81.6120 304.3750  1.00271404 28511
HORIZONS-3E             
1 43633U 18074B   26175.13266341 -.00000024  00000+0  00000+0 0  9991
2 43633   0.0084 244.9552 0000546  64.2971 179.8035  1.00270268 28412
AEHF-4 (USA 288)        
1 43651U 18079A   26175.21965666 -.00000269  00000+0  00000+0 0  9992
2 43651   1.4340   4.6010 0060223 355.9674 283.3643  1.00270836 28361
BEIDOU-3 G1             
1 43683U 18085A   26175.28516769 -.00000103  00000+0  00000+0 0  9994
2 43683   2.8873  97.1803 0008390 350.6074  87.2429  1.00270768 28134
