OBJECT_NAME,OBJECT_ID,EPOCH,MEAN_MOTION,ECCENTRICITY,INCLINATION,RA_OF_ASC_NODE,ARG_OF_PERICENTER,MEAN_ANOMALY,EPHEMERIS_TYPE,CLASSIFICATION_TYPE,NORAD_CAT_ID,ELEMENT_SET_NO,REV_AT_EPOCH,BSTAR,MEAN_MOTION_DOT,MEAN_MOTION_DDOT
TDRS 13,2017-047A,2026-06-24T04:02:11.323104,1.00272475,.00149191,3.4533,2.9237,106.7540,211.7611,0,U,42915,999,3241,0,-.95E-6,0
QZS-3 (MICHIBIKI-3),2017-048A,2026-06-24T04:41:45.030912,1.00273245,.0002195,0.0628,153.3950,295.2939,21.1395,0,U,42917,999,3233,0,-.34E-5,0
AMAZONAS 5,2017-053A,2026-06-24T00:22:44.611968,1.00268513,.00019519,0.0291,328.4439,87.3334,161.0747,0,U,42934,999,3211,0,-.275E-5,0
ASIASAT 9,2017-057A,2026-06-24T08:05:38.039712,1.00264238,.0002459,0.0430,51.7543,34.3679,69.9370,0,U,42942,999,3193,0,0,0
INTELSAT 37E (IS-37E),2017-059A,2026-06-24T05:00:38.801952,1.00268788,.00030481,0.0243,8.1537,110.0084,211.3584,0,U,42950,999,3213,0,0,0
BSAT-4A,2017-059B,2026-06-24T00:55:38.709408,1.00272441,.00041902,0.0344,8.2808,62.9372,324.7187,0,U,42951,999,3186,0,-.343E-5,0
QZS-4 (MICHIBIKI-4),2017-062A,2026-06-18T08:24:11.162880,1.00250086,.07450188,40.1070,343.4662,271.8091,274.2172,0,U,42965,999,3181,0,-.36E-5,0
SES-11 (ECHOSTAR 105),2017-063A,2026-06-24T05:18:05.698656,1.00272829,.00028828,0.0369,297.9973,152.7909,156.1632,0,U,42967,999,3179,0,-.82E-6,0
KOREASAT 5A,2017-067A,2026-06-24T04:41:38.428224,1.00272205,.00007947,0.0131,355.2471,87.5012,13.1727,0,U,42984,999,3160,0,-.351E-5,0
ALCOMSAT 1,2017-078A,2026-06-24T03:58:19.193952,1.00272180,.00025237,0.0155,312.0982,134.1018,220.8960,0,U,43039,999,3136,0,-.179E-5,0
SBIRS GEO-3 (USA 282),2018-009A,2026-06-24T05:02:36.237696,1.00272334,.00021975,2.1892,12.4586,72.2760,103.8757,0,U,43162,999,3091,0,.134E-5,0
AL YAH 3,2018-012A,2026-06-24T03:59:41.563392,1.00272252,.00040653,1.5704,83.0366,7.1892,221.9022,0,U,43174,999,3091,0,-.149E-5,0
SES-14,2018-012B,2026-06-24T03:51:49.816800,1.00270948,.00011011,0.0186,32.4949,59.2097,191.0635,0,U,43175,999,709,0,-.271E-5,0
GOES 17,2018-022A,2026-06-24T07:07:20.750016,1.00273081,.00005798,0.9553,85.5877,16.6900,187.4905,0,U,43226,999,3049,0,-.175E-5,0
HISPASAT 30W-6,2018-023A,2026-06-23T09:27:26.910144,1.00272502,.00059446,0.0466,46.0974,28.6275,308.6828,0,U,43228,999,3046,0,-.211E-5,0
SUPERBIRD-B3,2018-033A,2026-06-24T04:51:37.290816,1.00271244,.00014337,0.0148,308.9634,156.5480,41.7464,0,U,43271,999,3013,0,-.85E-6,0
HYLAS 4,2018-033B,2026-06-24T00:30:28.869408,1.00270871,.00011278,0.0190,17.2224,85.4220,143.6246,0,U,43272,999,3013,0,-.227E-5,0
IRNSS-1I,2018-035A,2026-06-22T22:33:59.670144,1.00275175,.00176124,28.7686,74.1054,182.2780,48.0829,0,U,43286,999,3013,0,.69E-6,0
USA 283,2018-036A,2026-06-19T12:54:38.708064,1.00268506,.0000086,0.0091,53.6723,77.7836,104.0737,0,U,43339,999,2531,0,0,0
COSMOS 2526,2018-037A,2026-06-24T00:47:38.523264,1.00270461,.00006726,0.0255,46.7980,188.6411,176.7104,0,U,43432,999,3002,0,-.338E-5,0
APSTAR-6C,2018-041A,2026-06-23T00:26:38.444064,1.00273186,.0000839,0.0245,335.6508,26.5476,49.6657,0,U,43450,999,2986,0,-.314E-5,0
BANGABANDHUSAT-1,2018-044A,2026-06-24T04:41:38.428224,1.00268791,.00021823,0.0180,23.0052,71.8808,6.9774,0,U,43463,999,2978,0,0,0
SES-12,2018-049A,2026-06-23T17:48:38.754144,1.00269989,.00005546,0.0140,18.0176,248.6570,7.3782,0,U,43488,999,2948,0,-.263E-5,0
FENGYUN 2H,2018-050A,2026-06-24T02:45:22.711680,1.00269578,.00016752,3.0500,79.0011,128.9794,184.9906,0,U,43491,999,2950,0,-.124E-5,0
BEIDOU-2 IGSO-7,2018-057A,2026-06-23T21:53:24.695232,1.00249137,.01049699,55.1966,162.9981,238.0220,308.7822,0,U,43539,999,2919,0,-.15E-6,0
TELSTAR 19V,2018-059A,2026-06-24T02:04:45.209568,1.00271347,.00028604,0.0158,178.5187,295.4617,126.4534,0,U,43562,999,2921,0,-.273E-5,0
TELKOM 4 (MERAH PUTIH),2018-064A,2026-06-24T01:10:43.322592,1.00271050,.00015887,0.0181,36.7879,80.9843,280.1110,0,U,43587,999,2894,0,-.337E-5,0
TELSTAR 18V,2018-069A,2026-06-24T04:11:38.697216,1.00271042,.00020467,0.0153,299.4938,150.9191,22.8217,0,U,43611,999,2871,0,-.287E-5,0
AZERSPACE 2 (IS-38),2018-074A,2026-06-24T05:29:38.510016,1.00271404,.00016286,0.0251,13.9170,81.6120,304.3750,0,U,43632,999,2851,0,0,0
HORIZONS-3E,2018-074B,2026-06-24T03:11:02.118624,1.00270268,.00005468,0.0084,244.9552,64.2971,179.8035,0,U,43633,999,2841,0,-.24E-6,0
AEHF-4 (USA 288),2018-079A,2026-06-24T05:16:18.335424,1.00270836,.0060223,1.4340,4.6010,355.9674,283.3643,0,U,43651,999,2836,0,-.269E-5,0
BEIDOU-3 G1,2018-085A,2026-06-24T06:50:38.488416,1.00270768,.00083908,2.8873,97.1803,350.6074,87.2429,0,U,43683,999,2813,0,-.103E-5,0
